CTC1_L_00574001-01
1 54145U 26850YG  26070.40840278  .00000000  00000+0  00000-0 0  9997
2 54145  63.4000   0.0000 0000000   0.0000   0.0000  2.00929005    12
CTC1_L_00574001-02
1 54146U 23195XT  26070.40840278  .00000000  00000+0  00000-0 0  9997
2 54146  63.4000   0.0000 0000000   0.0000 180.0000  2.00929005    12
CTC1_L_00574002-01
1 54147U 23887GW  26070.40840278  .00000000  00000+0  00000-0 0  9996
2 54147  63.4000 180.0000 0000000   0.0000   0.0000  2.00929005    13
CTC1_L_00574002-02
1 54148U 25680SC  26070.40840278  .00000000  00000+0  00000-0 0  9990
2 54148  63.4000 180.0000 0000000   0.0000 180.0000  2.00929005    13
